STARLINK-6152           
1 57121U 23090W   25039.32215943 -.00000088  00000+0  85573-5 0  9997
2 57121  43.0044 257.2393 0001361 272.6887  87.3799 15.02534841 90909
STARLINK-6149           
1 57122U 23090X   25039.85953233 -.00000417  00000+0 -15799-4 0  9996
2 57122  43.0019 254.3928 0001454 266.4604  93.6072 15.02542891 90037
STARLINK-6154           
1 57123U 23090Y   25039.31882927  .00000247  00000+0  33383-4 0  9997
2 57123  43.0030 257.2166 0001249 267.9301  92.1398 15.02537511 90903
STARLINK-6146           
1 57124U 23090Z   25039.85731271  .00000083  00000+0  21222-4 0  9999
2 57124  43.0005 254.3753 0001107 279.7009  80.3709 15.02536184 90039
STARLINK-6100           
1 57125U 23090AA  25038.83943199  .00002095  00000+0  17011-3 0  9996
2 57125  43.0025 247.4827 0001221 258.5196 101.5509 15.02536281 90027
STARLINK-6167           
1 57126U 23090AB  25039.32438125  .00000205  00000+0  30272-4 0  9996
2 57126  43.0021 257.2568 0001150 271.3323  88.7387 15.02534483 91091
STARLINK-6165           
1 57127U 23090AC  25039.31439321 -.00000406  00000+0 -15019-4 0  9992
2 57127  43.0020 257.1852 0001242 267.9052  92.1648 15.02541436 90902
STARLINK-6163           
1 57128U 23090AD  25039.85287131  .00000235  00000+0  32439-4 0  9995
2 57128  43.0031 254.3404 0001207 267.0713  92.9991 15.02538596 90039
STARLINK-6170           
1 57129U 23090AE  25039.25272338  .00000314  00000+0  38293-4 0  9995
2 57129  43.0025 245.4251 0001483 269.0929  90.9743 15.02537539 91031
STARLINK-6172           
1 57130U 23090AF  25039.31550069  .00001128  00000+0  98606-4 0  9992
2 57130  43.0023 257.1897 0001252 256.0808 103.9895 15.02531325 90908
STARLINK-6162           
1 57131U 23090AG  25039.84651117 -.00041066  00000+0 -30298-2 0  9995
2 57131  43.0029 242.1407 0002165 301.0073  59.0557 15.02694505 90170
STARLINK-6128           
1 57132U 23090AH  25039.30884417 -.00001113  00000+0 -67341-4 0  9998
2 57132  43.0020 257.1420 0000667 255.2415 104.8353 15.02532662 90907
STARLINK-6143           
1 57133U 23090AJ  25038.83611154 -.00001661  00000+0 -10789-3 0  9993
2 57133  42.9991 247.4564 0001321 265.9045  94.1646 15.02534818 90023
STARLINK-6133           
1 57134U 23090AK  25039.24939500 -.00000675  00000+0 -34894-4 0  9996
2 57134  42.9996 245.3958 0000706 266.0244  94.0517 15.02537770 91030
STARLINK-6127           
1 57135U 23090AL  25039.29146856 -.00002537  00000+0 -17278-3 0  9991
2 57135  43.0037 244.8494 0001541 269.9805  90.0861 15.02540682 91046
STARLINK-6112           
1 57136U 23090AM  25038.84720150 -.00001358  00000+0 -85466-4 0  9992
2 57136  43.0019 247.5398 0001455 254.8574 105.2107 15.02539801 90020
STARLINK-5347           
1 57137U 23090AN  25038.83387916  .00000591  00000+0  58860-4 0  9995
2 57137  43.0032 247.4358 0001570 267.5067  92.5596 15.02535357 90029
STARLINK-5336           
1 57138U 23090AP  25039.84323720  .00003529  00000+0  27594-3 0  9994
2 57138  43.0029 242.1127 0001469 263.1624  96.9051 15.02568071 90179
STARLINK-5355           
1 57139U 23090AQ  25039.29478783 -.00001358  00000+0 -85469-4 0  9990
2 57139  43.0002 244.8777 0001168 283.6234  76.4478 15.02534639 91047
STARLINK-5357           
1 57141U 23090AS  25039.55515037 -.00000338  00000+0 -99770-5 0  9994
2 57141  43.0030 243.3891 0001342 272.5770  87.4918 15.02531836 90134
STARLINK-5361           
1 57142U 23090AT  25039.55070622  .00000190  00000+0  29123-4 0  9999
2 57142  43.0028 243.3563 0001607 269.8349  90.2309 15.02534740 90136
STARLINK-5358           
1 57143U 23090AU  25039.54737552  .00001023  00000+0  90807-4 0  9994
2 57143  43.0024 243.3313 0001243 258.1304 101.9399 15.02538736 90132
STARLINK-5150           
1 57144U 23090AV  25039.29256422  .00000668  00000+0  64504-4 0  9998
2 57144  43.0021 244.8566 0001274 267.4190  92.6507 15.02539324 91048
STARLINK-5768           
1 57145U 23090AW  25039.27260120  .00009299  00000+0  70294-3 0  9998
2 57145  43.0057 244.7080 0001000 282.0379  78.0351 15.02513926 91042
STARLINK-5791           
1 57146U 23090AX  25039.54515768  .00000438  00000+0  47466-4 0  9992
2 57146  43.0024 243.3116 0001277 266.9294  93.1402 15.02536911 90138
STARLINK-5765           
1 57147U 23090AY  25039.00222967  .00000399  00000+0  44605-4 0  9998
2 57147  43.0028 246.1161 0001129 286.4097  73.6621 15.02534681 91193
STARLINK-5788           
1 57148U 23090AZ  25039.85978811  .00001354  00000+0  11533-3 0  9993
2 57148  43.0024 241.3725 0001368 268.9850  91.0836 15.02526239 90180
STARLINK-5778           
1 57149U 23090BA  25039.21551236  .00003485  00000+0  27301-3 0  9999
2 57149  43.0011 219.0935 0001390 250.6577 109.4115 15.02527790 91527
STARLINK-5780           
1 57150U 23090BB  25039.54182040 -.00004750  00000+0 -33657-3 0  9999
2 57150  43.0027 243.2884 0001166 277.5039  82.5671 15.02560913 90138
STARLINK-5776           
1 57151U 23090BC  25039.54071646 -.00000730  00000+0 -38987-4 0  9995
2 57151  43.0038 243.2790 0001591 267.9599  92.1061 15.02536426 90135
