OBJECT_NAME,OBJECT_ID,EPOCH,MEAN_MOTION,ECCENTRICITY,INCLINATION,RA_OF_ASC_NODE,ARG_OF_PERICENTER,MEAN_ANOMALY,EPHEMERIS_TYPE,CLASSIFICATION_TYPE,NORAD_CAT_ID,ELEMENT_SET_NO,REV_AT_EPOCH,BSTAR,MEAN_MOTION_DOT,MEAN_MOTION_DDOT
STARLINK-6152,2023-090W,2025-02-08T07:43:54.574752,15.02534841,.0001361,43.0044,257.2393,272.6887,87.3799,0,U,57121,999,9090,.85573E-5,-.88E-6,0
STARLINK-6149,2023-090X,2025-02-08T20:37:43.593312,15.02542891,.0001454,43.0019,254.3928,266.4604,93.6072,0,U,57122,999,9003,-.15799E-4,-.417E-5,0
STARLINK-6154,2023-090Y,2025-02-08T07:39:06.848928,15.02537511,.0001249,43.0030,257.2166,267.9301,92.1398,0,U,57123,999,9090,.33383E-4,.247E-5,0
STARLINK-6146,2023-090Z,2025-02-08T20:34:31.818144,15.02536184,.0001107,43.0005,254.3753,279.7009,80.3709,0,U,57124,999,9003,.21222E-4,.83E-6,0
STARLINK-6100,2023-090AA,2025-02-07T20:08:46.923936,15.02536281,.0001221,43.0025,247.4827,258.5196,101.5509,0,U,57125,999,9002,.17011E-3,.2095E-4,0
STARLINK-6167,2023-090AB,2025-02-08T07:47:06.540000,15.02534483,.000115,43.0021,257.2568,271.3323,88.7387,0,U,57126,999,9109,.30272E-4,.205E-5,0
STARLINK-6165,2023-090AC,2025-02-08T07:32:43.573344,15.02541436,.0001242,43.0020,257.1852,267.9052,92.1648,0,U,57127,999,9090,-.15019E-4,-.406E-5,0
STARLINK-6163,2023-090AD,2025-02-08T20:28:08.081184,15.02538596,.0001207,43.0031,254.3404,267.0713,92.9991,0,U,57128,999,9003,.32439E-4,.235E-5,0
STARLINK-6170,2023-090AE,2025-02-08T06:03:55.300032,15.02537539,.0001483,43.0025,245.4251,269.0929,90.9743,0,U,57129,999,9103,.38293E-4,.314E-5,0
STARLINK-6172,2023-090AF,2025-02-08T07:34:19.259616,15.02531325,.0001252,43.0023,257.1897,256.0808,103.9895,0,U,57130,999,9090,.98606E-4,.1128E-4,0
STARLINK-6162,2023-090AG,2025-02-08T20:18:58.565088,15.02694505,.0002165,43.0029,242.1407,301.0073,59.0557,0,U,57131,999,9017,-.30298E-2,-.41066E-3,0
STARLINK-6128,2023-090AH,2025-02-08T07:24:44.136288,15.02532662,.0000667,43.0020,257.1420,255.2415,104.8353,0,U,57132,999,9090,-.67341E-4,-.1113E-4,0
STARLINK-6143,2023-090AJ,2025-02-07T20:04:00.037056,15.02534818,.0001321,42.9991,247.4564,265.9045,94.1646,0,U,57133,999,9002,-.10789E-3,-.1661E-4,0
STARLINK-6133,2023-090AK,2025-02-08T05:59:07.728000,15.02537770,.0000706,42.9996,245.3958,266.0244,94.0517,0,U,57134,999,9103,-.34894E-4,-.675E-5,0
STARLINK-6127,2023-090AL,2025-02-08T06:59:42.883584,15.02540682,.0001541,43.0037,244.8494,269.9805,90.0861,0,U,57135,999,9104,-.17278E-3,-.2537E-4,0
STARLINK-6112,2023-090AM,2025-02-07T20:19:58.209600,15.02539801,.0001455,43.0019,247.5398,254.8574,105.2107,0,U,57136,999,9002,-.85466E-4,-.1358E-4,0
STARLINK-5347,2023-090AN,2025-02-07T20:00:47.159424,15.02535357,.000157,43.0032,247.4358,267.5067,92.5596,0,U,57137,999,9002,.5886E-4,.591E-5,0
STARLINK-5336,2023-090AP,2025-02-08T20:14:15.694080,15.02568071,.0001469,43.0029,242.1127,263.1624,96.9051,0,U,57138,999,9017,.27594E-3,.3529E-4,0
STARLINK-5355,2023-090AQ,2025-02-08T07:04:29.668512,15.02534639,.0001168,43.0002,244.8777,283.6234,76.4478,0,U,57139,999,9104,-.85469E-4,-.1358E-4,0
STARLINK-5357,2023-090AS,2025-02-08T13:19:24.991968,15.02531836,.0001342,43.0030,243.3891,272.5770,87.4918,0,U,57141,999,9013,-.9977E-5,-.338E-5,0
STARLINK-5361,2023-090AT,2025-02-08T13:13:01.017408,15.02534740,.0001607,43.0028,243.3563,269.8349,90.2309,0,U,57142,999,9013,.29123E-4,.19E-5,0
STARLINK-5358,2023-090AU,2025-02-08T13:08:13.244928,15.02538736,.0001243,43.0024,243.3313,258.1304,101.9399,0,U,57143,999,9013,.90807E-4,.1023E-4,0
STARLINK-5150,2023-090AV,2025-02-08T07:01:17.548608,15.02539324,.0001274,43.0021,244.8566,267.4190,92.6507,0,U,57144,999,9104,.64504E-4,.668E-5,0
STARLINK-5768,2023-090AW,2025-02-08T06:32:32.743680,15.02513926,.0001,43.0057,244.7080,282.0379,78.0351,0,U,57145,999,9104,.70294E-3,.9299E-4,0
STARLINK-5791,2023-090AX,2025-02-08T13:05:01.623552,15.02536911,.0001277,43.0024,243.3116,266.9294,93.1402,0,U,57146,999,9013,.47466E-4,.438E-5,0
STARLINK-5765,2023-090AY,2025-02-08T00:03:12.643488,15.02534681,.0001129,43.0028,246.1161,286.4097,73.6621,0,U,57147,999,9119,.44605E-4,.399E-5,0
STARLINK-5788,2023-090AZ,2025-02-08T20:38:05.692704,15.02526239,.0001368,43.0024,241.3725,268.9850,91.0836,0,U,57148,999,9018,.11533E-3,.1354E-4,0
STARLINK-5778,2023-090BA,2025-02-08T05:10:20.267904,15.02527790,.000139,43.0011,219.0935,250.6577,109.4115,0,U,57149,999,9152,.27301E-3,.3485E-4,0
STARLINK-5780,2023-090BB,2025-02-08T13:00:13.282560,15.02560913,.0001166,43.0027,243.2884,277.5039,82.5671,0,U,57150,999,9013,-.33657E-3,-.475E-4,0
STARLINK-5776,2023-090BC,2025-02-08T12:58:37.902144,15.02536426,.0001591,43.0038,243.2790,267.9599,92.1061,0,U,57151,999,9013,-.38987E-4,-.73E-5,0
